SKYKRAFT-1A             
1 55054U 23001AX  26068.71064616  .00008177  00000+0  30069-3 0  9991
2 55054  97.3349 127.6290 0011277 121.5092 238.7251 15.28083228176529
STARLINK-33813          
1 63585U 25076S   26068.08993266  .00052044  00000+0  18868-2 0  9999
2 63585  43.0040 324.6511 0002317 266.7062  93.3524 15.27589924 51749
